COSMOS 2361 [-]         
1 25590U 98076A   22293.05855472  .00000087  00000+0  78080-4 0  9996
2 25590  82.9300 114.0644 0030665 220.4364 259.6031 13.73031040193636
COSMOS 2378 [-]         
1 26818U 01023A   22290.23153325 -.00000162  00000+0 -18791-3 0  9999
2 26818  82.9248 133.9775 0032915 173.6531 186.4881 13.73977274 71038
COSMOS 2389 [-]         
1 27436U 02026A   22292.73709191  .00000072  00000+0  58787-4 0  9993
2 27436  82.9488  78.0286 0047015  30.4340  98.6958 13.74984400 23443
COSMOS 2398 [-]         
1 27818U 03023A   22290.25743519  .00000086  00000+0  77646-4 0  9992
2 27818  82.9516  41.8522 0032667  73.9490 286.5298 13.72219638970094
COSMOS 2407 [+]         
1 28380U 04028A   22290.15002030 -.00000117  00000+0 -13587-3 0  9998
2 28380  82.9663 346.3372 0040075  38.8662 321.5406 13.76123019915890
COSMOS 2414 [+]         
1 28521U 05002A   22293.20719078  .00000084  00000+0  57382-4 0  9997
2 28521  82.9501 333.9209 0040461 176.3577 183.7889 13.87669813898859
COSMOS 2429 [-]         
1 32052U 07038A   22293.02853245  .00000075  00000+0  62699-4 0  9994
2 32052  82.9762 110.5373 0038623   8.3996 351.7798 13.74972116758118
COSMOS 2454 [-]         
1 35635U 09039A   22292.72660341  .00000066  00000+0  41017-4 0  9997
2 35635  82.9548 320.3990 0020587 120.9673 306.5846 13.89697898671763
COSMOS 2463 [+]         
1 36519U 10017A   22292.74617852  .00000053  00000+0  41848-4 0  9996
2 36519  82.9600 151.5330 0035042 237.1972 167.1657 13.71482360624734
